OBJECT_NAME,OBJECT_ID,EPOCH,MEAN_MOTION,ECCENTRICITY,INCLINATION,RA_OF_ASC_NODE,ARG_OF_PERICENTER,MEAN_ANOMALY,EPHEMERIS_TYPE,CLASSIFICATION_TYPE,NORAD_CAT_ID,ELEMENT_SET_NO,REV_AT_EPOCH,BSTAR,MEAN_MOTION_DOT,MEAN_MOTION_DDOT
STARLINK-36584,2026-014R,2026-07-02T05:56:34.024992,15.33409107,.00021241,97.2858,69.8162,65.1418,295.0045,0,U,67547,999,2634,.22648505E-3,.7236E-4,0
STARLINK-36586,2026-014S,2026-07-02T05:52:38.330112,15.33411437,.00015919,97.2867,69.8191,164.0889,196.0404,0,U,67548,999,2634,.56691562E-3,.18252E-3,0
STARLINK-36564,2026-014T,2026-07-02T05:25:14.180448,15.33417371,.00014244,97.2850,69.6900,98.8364,261.3040,0,U,67549,999,2627,.65201425E-3,.21015E-3,0
STARLINK-36563,2026-014U,2026-07-02T05:44:49.270560,15.33436532,.00029303,97.2816,69.8235,94.3871,265.7706,0,U,67550,999,2634,.7742761E-3,.25E-3,0
STARLINK-36566,2026-014V,2026-07-02T05:33:04.582656,15.33431359,.00031653,97.2826,69.6816,93.8687,266.2918,0,U,67551,999,2632,.61746401E-3,.19905E-3,0
STARLINK-36567,2026-014W,2026-07-02T06:00:28.683936,15.33425407,.00016814,97.2851,69.8077,84.6015,275.5420,0,U,67552,999,2633,.43986875E-3,.14144E-3,0
STARLINK-36569,2026-014X,2026-07-02T06:12:13.561920,15.33430146,.00016582,97.2848,69.8000,86.9286,273.2146,0,U,67553,999,2633,.47310877E-3,.15223E-3,0
STARLINK-36395,2026-014Y,2026-07-02T06:31:11.239104,15.33429816,.00019558,97.2849,72.6796,106.8290,253.3167,0,U,67554,999,2652,.28244816E-3,.905E-4,0
STARLINK-36559,2026-014Z,2026-07-02T06:23:58.413120,15.33414997,.00020502,97.2865,69.7868,99.4074,260.7401,0,U,67555,999,2633,.11920519E-3,.3772E-4,0
STARLINK-36426,2026-014AA,2026-07-02T05:37:02.026272,15.33437119,.00037548,97.2849,69.8320,59.1598,301.0014,0,U,67560,999,2633,.10268758E-2,.3322E-3,0
STARLINK-36621,2026-016A,2026-07-02T03:50:46.474368,15.33453869,.00004698,97.2839,242.8974,113.6208,246.5084,0,U,67561,999,2440,.7637855E-3,.2467E-3,0
STARLINK-36398,2026-016B,2026-07-02T04:02:31.111296,15.33473121,.00010299,97.2813,243.0383,144.4423,215.6889,0,U,67562,999,2441,.87979996E-3,.2846E-3,0
STARLINK-36403,2026-016C,2026-07-02T02:55:57.794016,15.33465888,.00011239,97.2833,242.9486,80.6588,279.4782,0,U,67563,999,2440,.11184809E-2,.36231E-3,0
STARLINK-36593,2026-016D,2026-07-02T03:03:47.540448,15.33467074,.0000908,97.2818,242.9393,95.4861,264.6486,0,U,67564,999,2440,.11320836E-2,.36676E-3,0
STARLINK-35725,2026-016E,2026-07-02T03:31:11.881056,15.33444950,.00000957,97.2841,242.9169,192.2372,167.8868,0,U,67565,999,2440,.41968407E-3,.13498E-3,0
STARLINK-36394,2026-016F,2026-07-02T03:35:06.741312,15.33453618,.00004665,97.2844,242.9135,203.3135,156.8087,0,U,67566,999,2440,.84816122E-3,.27413E-3,0
STARLINK-36352,2026-016G,2026-07-02T02:48:07.587936,15.33459350,.00001495,97.2836,242.9589,112.8559,247.2700,0,U,67567,999,2440,.10481117E-2,.33929E-3,0
STARLINK-36435,2026-016H,2026-07-02T04:06:26.886528,15.33461952,.00017891,97.2830,243.0367,84.5019,275.6428,0,U,67568,999,2441,.8090226E-3,.26148E-3,0
STARLINK-36575,2026-016J,2026-07-02T03:52:55.401312,15.33488466,.00009394,97.2837,243.9614,130.5092,229.6232,0,U,67569,999,2447,.87931081E-3,.28458E-3,0
STARLINK-36562,2026-016K,2026-07-02T04:18:09.940608,15.33484782,.00004219,97.2860,243.0283,227.2642,132.8566,0,U,67570,999,2441,.74710873E-3,.24152E-3,0
STARLINK-36578,2026-016L,2026-07-02T03:39:01.611072,15.33454385,.00006473,97.2835,242.9091,254.9519,105.1652,0,U,67571,999,2440,.88662125E-3,.28665E-3,0
STARLINK-36350,2026-016M,2026-07-02T03:23:22.076736,15.33460348,.00004566,97.2834,242.9244,105.0026,255.1267,0,U,67572,999,2440,.10735144E-2,.34758E-3,0
STARLINK-36588,2026-016N,2026-07-02T03:27:17.041536,15.33447963,.00007025,97.2834,242.9210,93.8675,266.2648,0,U,67573,999,2440,.56299287E-3,.18146E-3,0
STARLINK-36594,2026-016P,2026-07-02T04:14:15.738720,15.33468429,.00005278,97.2837,243.0305,129.8386,230.2904,0,U,67574,999,2441,.77874403E-3,.25168E-3,0
STARLINK-36400,2026-016Q,2026-07-02T03:07:42.623616,15.33463152,.00009617,97.2832,242.9408,76.1843,283.9507,0,U,67575,999,2440,.11380586E-2,.36866E-3,0
STARLINK-36591,2026-016R,2026-07-02T02:52:02.779104,15.33466469,.0000709,97.2834,242.9557,94.8327,265.2997,0,U,67576,999,2440,.1111951E-2,.36018E-3,0
STARLINK-36590,2026-016S,2026-07-01T14:39:52.095168,15.33452695,.00006107,97.2812,242.4202,92.7401,267.3912,0,U,67577,999,2432,.26782988E-3,.8583E-4,0
STARLINK-36613,2026-016T,2026-07-02T03:46:51.481920,15.33448057,.00002583,97.2836,242.9049,146.9028,213.2231,0,U,67578,999,2440,.6455043E-3,.20824E-3,0
STARLINK-36571,2026-016U,2026-07-02T03:15:32.351904,15.33473561,.00016846,97.2833,242.9341,113.1891,246.9529,0,U,67579,999,2440,.10976932E-2,.35562E-3,0
STARLINK-36612,2026-016V,2026-07-02T03:58:36.302016,15.33458161,.00006451,97.2833,243.0444,84.9034,275.2282,0,U,67580,999,2441,.94456366E-3,.30555E-3,0
