STARLINK-36584          
1 67547U 26014R   26183.24761603  .00007236  00000+0  22649-3 0  9994
2 67547  97.2858  69.8162 0002124  65.1418 295.0045 15.33409107 26349
STARLINK-36586          
1 67548U 26014S   26183.24488808  .00018252  00000+0  56692-3 0  9993
2 67548  97.2867  69.8191 0001591 164.0889 196.0404 15.33411437 26348
STARLINK-36564          
1 67549U 26014T   26183.22585857  .00021015  00000+0  65201-3 0  9991
2 67549  97.2850  69.6900 0001424  98.8364 261.3040 15.33417371 26271
STARLINK-36563          
1 67550U 26014U   26183.23945915  .00025000  00000+0  77428-3 0  9991
2 67550  97.2816  69.8235 0002930  94.3871 265.7706 15.33436532 26340
STARLINK-36566          
1 67551U 26014V   26183.23130304  .00019905  00000+0  61746-3 0  9993
2 67551  97.2826  69.6816 0003165  93.8687 266.2918 15.33431359 26326
STARLINK-36567          
1 67552U 26014W   26183.25033199  .00014144  00000+0  43987-3 0  9997
2 67552  97.2851  69.8077 0001681  84.6015 275.5420 15.33425407 26339
STARLINK-36569          
1 67553U 26014X   26183.25849030  .00015223  00000+0  47311-3 0  9991
2 67553  97.2848  69.8000 0001658  86.9286 273.2146 15.33430146 26337
STARLINK-36395          
1 67554U 26014Y   26183.27165786  .00009050  00000+0  28245-3 0  9999
2 67554  97.2849  72.6796 0001955 106.8290 253.3167 15.33429816 26525
STARLINK-36559          
1 67555U 26014Z   26183.26664830  .00003772  00000+0  11921-3 0  9991
2 67555  97.2865  69.7868 0002050  99.4074 260.7401 15.33414997 26331
STARLINK-36426          
1 67560U 26014AA  26183.23405123  .00033220  00000+0  10269-2 0  9996
2 67560  97.2849  69.8320 0003754  59.1598 301.0014 15.33437119 26339
STARLINK-36621          
1 67561U 26016A   26183.16026012  .00024670  00000+0  76379-3 0  9991
2 67561  97.2839 242.8974 0000469 113.6208 246.5084 15.33453869 24407
STARLINK-36398          
1 67562U 26016B   26183.16841564  .00028460  00000+0  87980-3 0  9990
2 67562  97.2813 243.0383 0001029 144.4423 215.6889 15.33473121 24415
STARLINK-36403          
1 67563U 26016C   26183.12219669  .00036231  00000+0  11185-2 0  9990
2 67563  97.2833 242.9486 0001123  80.6588 279.4782 15.33465888 24408
STARLINK-36593          
1 67564U 26016D   26183.12763357  .00036676  00000+0  11321-2 0  9994
2 67564  97.2818 242.9393 0000908  95.4861 264.6486 15.33467074 24403
STARLINK-35725          
1 67565U 26016E   26183.14666529  .00013498  00000+0  41968-3 0  9998
2 67565  97.2841 242.9169 0000095 192.2372 167.8868 15.33444950 24407
STARLINK-36394          
1 67566U 26016F   26183.14938358  .00027413  00000+0  84816-3 0  9992
2 67566  97.2844 242.9135 0000466 203.3135 156.8087 15.33453618 24409
STARLINK-36352          
1 67567U 26016G   26183.11675449  .00033929  00000+0  10481-2 0  9994
2 67567  97.2836 242.9589 0000149 112.8559 247.2700 15.33459350 24402
STARLINK-36435          
1 67568U 26016H   26183.17114452  .00026148  00000+0  80902-3 0  9994
2 67568  97.2830 243.0367 0001789  84.5019 275.6428 15.33461952 24414
STARLINK-36575          
1 67569U 26016J   26183.16175233  .00028458  00000+0  87931-3 0  9993
2 67569  97.2837 243.9614 0000939 130.5092 229.6232 15.33488466 24472
STARLINK-36562          
1 67570U 26016K   26183.17928172  .00024152  00000+0  74711-3 0  9993
2 67570  97.2860 243.0283 0000421 227.2642 132.8566 15.33484782 24410
STARLINK-36578          
1 67571U 26016L   26183.15210198  .00028665  00000+0  88662-3 0  9997
2 67571  97.2835 242.9091 0000647 254.9519 105.1652 15.33454385 24402
STARLINK-36350          
1 67572U 26016M   26183.14122774  .00034758  00000+0  10735-2 0  9994
2 67572  97.2834 242.9244 0000456 105.0026 255.1267 15.33460348 24403
STARLINK-36588          
1 67573U 26016N   26183.14394724  .00018146  00000+0  56299-3 0  9990
2 67573  97.2834 242.9210 0000702  93.8675 266.2648 15.33447963 24409
STARLINK-36594          
1 67574U 26016P   26183.17657105  .00025168  00000+0  77874-3 0  9993
2 67574  97.2837 243.0305 0000527 129.8386 230.2904 15.33468429 24411
STARLINK-36400          
1 67575U 26016Q   26183.13035444  .00036866  00000+0  11381-2 0  9993
2 67575  97.2832 242.9408 0000961  76.1843 283.9507 15.33463152 24404
STARLINK-36591          
1 67576U 26016R   26183.11947661  .00036018  00000+0  11120-2 0  9995
2 67576  97.2834 242.9557 0000709  94.8327 265.2997 15.33466469 24406
STARLINK-36590          
1 67577U 26016S   26182.61101962  .00008583  00000+0  26783-3 0  9994
2 67577  97.2812 242.4202 0000610  92.7401 267.3912 15.33452695 24323
STARLINK-36613          
1 67578U 26016T   26183.15754030  .00020824  00000+0  64550-3 0  9991
2 67578  97.2836 242.9049 0000258 146.9028 213.2231 15.33448057 24409
STARLINK-36571          
1 67579U 26016U   26183.13579111  .00035562  00000+0  10977-2 0  9993
2 67579  97.2833 242.9341 0001684 113.1891 246.9529 15.33473561 24401
STARLINK-36612          
1 67580U 26016V   26183.16569794  .00030555  00000+0  94456-3 0  9996
2 67580  97.2833 243.0444 0000645  84.9034 275.2282 15.33458161 24410
